TISAT 1                 
1 36799U 10035E   26068.75703561  .00024554  00000+0  91005-3 0  9996
2 36799  98.0645   6.8512 0001343 159.3030 200.8262 15.27628633852505
STARLINK-31524          
1 59506U 24071Y   26068.42845185 -.00001710  00000+0 -52637-4 0  9995
2 59506  43.0057 334.2763 0001266 272.5503  87.5204 15.27565301108249
